[{"OBJECT_NAME":"NEE-01 PEGASO","OBJECT_ID":"2013-018B","EPOCH":"2026-03-09T08:45:44.876736","MEAN_MOTION":14.93090964,"ECCENTRICITY":0.00136216,"INCLINATION":98.105,"RA_OF_ASC_NODE":209.346,"ARG_OF_PERICENTER":130.5869,"MEAN_ANOMALY":229.6537,"EPHEMERIS_TYPE":0,"CLASSIFICATION_TYPE":"U","NORAD_CAT_ID":39151,"ELEMENT_SET_NO":999,"REV_AT_EPOCH":69580,"BSTAR":0.00037910707,"MEAN_MOTION_DOT":3.896e-5,"MEAN_MOTION_DDOT":0},{"OBJECT_NAME":"IRIDIUM 33 DEB","OBJECT_ID":"1997-051BV","EPOCH":"2026-03-09T23:47:33.437472","MEAN_MOTION":14.90361949,"ECCENTRICITY":0.0002475,"INCLINATION":86.2499,"RA_OF_ASC_NODE":248.1943,"ARG_OF_PERICENTER":112.4523,"MEAN_ANOMALY":17.8273,"EPHEMERIS_TYPE":0,"CLASSIFICATION_TYPE":"U","NORAD_CAT_ID":33960,"ELEMENT_SET_NO":999,"REV_AT_EPOCH":90164,"BSTAR":0.0029854679,"MEAN_MOTION_DOT":0.00029153,"MEAN_MOTION_DDOT":0}]
